{
    "links": {
        "self": "http://www.neowsapp.com/rest/v1/neo/54054462?api_key=iIulBulltgU6a56xZRHN4H3l9WmuAYTsLGpBGhQ2"
    },
    "id": "54054462",
    "neo_reference_id": "54054462",
    "name": "(2020 SA1)",
    "designation": "2020 SA1",
    "nasa_jpl_url": "http://ssd.jpl.nasa.gov/sbdb.cgi?sstr=54054462",
    "absolute_magnitude_h": 26.05,
    "estimated_diameter": {
        "kilometers": {
            "estimated_diameter_min": 0.0163890951,
            "estimated_diameter_max": 0.0366471308
        },
        "meters": {
            "estimated_diameter_min": 16.3890951495,
            "estimated_diameter_max": 36.6471308439
        },
        "miles": {
            "estimated_diameter_min": 0.0101837084,
            "estimated_diameter_max": 0.0227714643
        },
        "feet": {
            "estimated_diameter_min": 53.7699989302,
            "estimated_diameter_max": 120.233372758
        }
    },
    "is_potentially_hazardous_asteroid": false,
    "close_approach_data": [
        {
            "close_approach_date": "2020-09-13",
            "close_approach_date_full": "2020-Sep-13 08:04",
            "epoch_date_close_approach": 1599984240000,
            "relative_velocity": {
                "kilometers_per_second": "16.0862521065",
                "kilometers_per_hour": "57910.5075834583",
                "miles_per_hour": "35983.3373370661"
            },
            "miss_distance": {
                "astronomical": "0.0208565313",
                "lunar": "8.1131906757",
                "kilometers": "3120092.658068331",
                "miles": "1938735.6773557278"
            },
            "orbiting_body": "Earth"
        },
        {
            "close_approach_date": "2022-09-24",
            "close_approach_date_full": "2022-Sep-24 19:08",
            "epoch_date_close_approach": 1664046480000,
            "relative_velocity": {
                "kilometers_per_second": "21.7902582043",
                "kilometers_per_hour": "78444.9295353104",
                "miles_per_hour": "48742.6285770933"
            },
            "miss_distance": {
                "astronomical": "0.1899651419",
                "lunar": "73.8964401991",
                "kilometers": "28418380.602487753",
                "miles": "17658362.8772188714"
            },
            "orbiting_body": "Earth"
        }
    ],
    "orbital_data": {
        "orbit_id": "4",
        "orbit_determination_date": "2020-09-26 06:45:53",
        "first_observation_date": "2020-09-17",
        "last_observation_date": "2020-09-26",
        "data_arc_in_days": 9,
        "observations_used": 34,
        "orbit_uncertainty": "8",
        "minimum_orbit_intersection": ".0194089",
        "jupiter_tisserand_invariant": "4.162",
        "epoch_osculation": "2459110.5",
        "eccentricity": ".5536422545793672",
        "semi_major_axis": "1.604049170168957",
        "inclination": "6.923580666315594",
        "ascending_node_longitude": ".09983890017343161",
        "orbital_period": "742.0359429150867",
        "perihelion_distance": ".7159797711404526",
        "perihelion_argument": "271.5558309602716",
        "aphelion_distance": "2.492118569197462",
        "perihelion_time": "2459055.489325791933",
        "mean_anomaly": "26.68852217199179",
        "mean_motion": ".4851517011234533",
        "equinox": "J2000",
        "orbit_class": {
            "orbit_class_type": "APO",
            "orbit_class_description": "Near-Earth asteroid orbits which cross the Earth’s orbit similar to that of 1862 Apollo",
            "orbit_class_range": "a (semi-major axis) > 1.0 AU; q (perihelion) < 1.017 AU"
        }
    },
    "is_sentry_object": false
}